{
    "links": {
        "self": "http://www.neowsapp.com/rest/v1/neo/3893547?api_key=iIulBulltgU6a56xZRHN4H3l9WmuAYTsLGpBGhQ2"
    },
    "id": "3893547",
    "neo_reference_id": "3893547",
    "name": "(2019 WA3)",
    "designation": "2019 WA3",
    "nasa_jpl_url": "http://ssd.jpl.nasa.gov/sbdb.cgi?sstr=3893547",
    "absolute_magnitude_h": 25.4,
    "estimated_diameter": {
        "kilometers": {
            "estimated_diameter_min": 0.022108281,
            "estimated_diameter_max": 0.0494356193
        },
        "meters": {
            "estimated_diameter_min": 22.1082810359,
            "estimated_diameter_max": 49.435619262
        },
        "miles": {
            "estimated_diameter_min": 0.0137374447,
            "estimated_diameter_max": 0.0307178602
        },
        "feet": {
            "estimated_diameter_min": 72.5337327539,
            "estimated_diameter_max": 162.1903570994
        }
    },
    "is_potentially_hazardous_asteroid": false,
    "close_approach_data": [
        {
            "close_approach_date": "1992-09-26",
            "close_approach_date_full": "1992-Sep-26 01:19",
            "epoch_date_close_approach": 717470340000,
            "relative_velocity": {
                "kilometers_per_second": "6.5059103616",
                "kilometers_per_hour": "23421.2773015891",
                "miles_per_hour": "14553.0708877568"
            },
            "miss_distance": {
                "astronomical": "0.019815895",
                "lunar": "7.708383155",
                "kilometers": "2964415.68414365",
                "miles": "1842002.49133637"
            },
            "orbiting_body": "Earth"
        },
        {
            "close_approach_date": "1993-02-21",
            "close_approach_date_full": "1993-Feb-21 19:56",
            "epoch_date_close_approach": 730324560000,
            "relative_velocity": {
                "kilometers_per_second": "9.2290989507",
                "kilometers_per_hour": "33224.7562226245",
                "miles_per_hour": "20644.5714428857"
            },
            "miss_distance": {
                "astronomical": "0.0973801418",
                "lunar": "37.8808751602",
                "kilometers": "14567861.793577966",
                "miles": "9052049.5694132908"
            },
            "orbiting_body": "Mars"
        },
        {
            "close_approach_date": "2019-11-09",
            "close_approach_date_full": "2019-Nov-09 12:58",
            "epoch_date_close_approach": 1573304280000,
            "relative_velocity": {
                "kilometers_per_second": "8.0338994707",
                "kilometers_per_hour": "28922.0380946423",
                "miles_per_hour": "17971.0297260848"
            },
            "miss_distance": {
                "astronomical": "0.0459240169",
                "lunar": "17.8644425741",
                "kilometers": "6870135.110084003",
                "miles": "4268904.0056971214"
            },
            "orbiting_body": "Earth"
        },
        {
            "close_approach_date": "2028-11-28",
            "close_approach_date_full": "2028-Nov-28 03:52",
            "epoch_date_close_approach": 1858996320000,
            "relative_velocity": {
                "kilometers_per_second": "13.9584632413",
                "kilometers_per_hour": "50250.4676685313",
                "miles_per_hour": "31223.6864243716"
            },
            "miss_distance": {
                "astronomical": "0.2238255924",
                "lunar": "87.0681554436",
                "kilometers": "33483831.874528188",
                "miles": "20805888.3449694744"
            },
            "orbiting_body": "Earth"
        }
    ],
    "orbital_data": {
        "orbit_id": "6",
        "orbit_determination_date": "2020-03-16 06:10:24",
        "first_observation_date": "2019-11-25",
        "last_observation_date": "2019-12-21",
        "data_arc_in_days": 26,
        "observations_used": 18,
        "orbit_uncertainty": "7",
        "minimum_orbit_intersection": ".00141854",
        "jupiter_tisserand_invariant": "4.059",
        "epoch_osculation": "2459000.5",
        "eccentricity": ".4330105339547287",
        "semi_major_axis": "1.721101156920597",
        "inclination": "2.06341057057381",
        "ascending_node_longitude": "174.5090948965017",
        "orbital_period": "824.7228390955653",
        "perihelion_distance": ".9758462259723077",
        "perihelion_argument": "202.9810766084482",
        "aphelion_distance": "2.466356087868885",
        "perihelion_time": "2458774.221565549140",
        "mean_anomaly": "98.77286348907631",
        "mean_motion": ".4365102831331736",
        "equinox": "J2000",
        "orbit_class": {
            "orbit_class_type": "APO",
            "orbit_class_description": "Near-Earth asteroid orbits which cross the Earth’s orbit similar to that of 1862 Apollo",
            "orbit_class_range": "a (semi-major axis) > 1.0 AU; q (perihelion) < 1.017 AU"
        }
    },
    "is_sentry_object": false
}